{
  "type": "FeatureCollection",
  "features": [
    {
      "type": "Feature",
      "properties": {
        "OBJECT_NAME": "GOSAT-GW (IBUKI GW)",
        "OBJECT_ID": "2025-141A",
        "EPOCH": "2025-11-27T12:14:18.333888",
        "MEAN_MOTION": 14.67573067,
        "ECCENTRICITY": 0.00014261,
        "INCLINATION": 98.0402,
        "RA_OF_ASC_NODE": 267.2999,
        "ARG_OF_PERICENTER": 77.357,
        "MEAN_ANOMALY": 282.7794,
        "EPHEMERIS_TYPE": 0,
        "CLASSIFICATION_TYPE": "U",
        "NORAD_CAT_ID": 64694,
        "ELEMENT_SET_NO": 999,
        "REV_AT_EPOCH": 2226,
        "BSTAR": 0.00019859395,
        "MEAN_MOTION_DOT": 1.079e-05,
        "MEAN_MOTION_DDOT": 0,
        "norad_id": 64694,
        "name": "GOSAT-GW (IBUKI GW)",
        "group": "resource",
        "longitude_deg": NaN,
        "latitude_deg": NaN,
        "alt_km": NaN,
        "orbit_class": "HEO",
        "timestamp": "2025-11-30T04:58:49.679392+00:00"
      },
      "geometry": {
        "type": "Point",
        "coordinates": [
          NaN,
          NaN
        ]
      }
    },
    {
      "type": "Feature",
      "properties": {
        "OBJECT_NAME": "IONOSFERA-M 3",
        "OBJECT_ID": "2025-155A",
        "EPOCH": "2025-11-29T19:57:16.026336",
        "MEAN_MOTION": 14.21435913,
        "ECCENTRICITY": 0.0002424,
        "INCLINATION": 98.5764,
        "RA_OF_ASC_NODE": 296.064,
        "ARG_OF_PERICENTER": 80.1562,
        "MEAN_ANOMALY": 279.9889,
        "EPHEMERIS_TYPE": 0,
        "CLASSIFICATION_TYPE": "U",
        "NORAD_CAT_ID": 64876,
        "ELEMENT_SET_NO": 999,
        "REV_AT_EPOCH": 1808,
        "BSTAR": 6.5592e-05,
        "MEAN_MOTION_DOT": 1.01e-06,
        "MEAN_MOTION_DDOT": 0,
        "norad_id": 64876,
        "name": "IONOSFERA-M 3",
        "group": "resource",
        "longitude_deg": NaN,
        "latitude_deg": NaN,
        "alt_km": NaN,
        "orbit_class": "HEO",
        "timestamp": "2025-11-30T04:58:49.680783+00:00"
      },
      "geometry": {
        "type": "Point",
        "coordinates": [
          NaN,
          NaN
        ]
      }
    },
    {
      "type": "Feature",
      "properties": {
        "OBJECT_NAME": "IONOSFERA-M 4",
        "OBJECT_ID": "2025-155B",
        "EPOCH": "2025-11-29T20:47:46.551264",
        "MEAN_MOTION": 14.21436907,
        "ECCENTRICITY": 0.0001785,
        "INCLINATION": 98.5763,
        "RA_OF_ASC_NODE": 296.0179,
        "ARG_OF_PERICENTER": 76.7479,
        "MEAN_ANOMALY": 283.3898,
        "EPHEMERIS_TYPE": 0,
        "CLASSIFICATION_TYPE": "U",
        "NORAD_CAT_ID": 64877,
        "ELEMENT_SET_NO": 999,
        "REV_AT_EPOCH": 1808,
        "BSTAR": 6.3175e-05,
        "MEAN_MOTION_DOT": 9.5e-07,
        "MEAN_MOTION_DDOT": 0,
        "norad_id": 64877,
        "name": "IONOSFERA-M 4",
        "group": "resource",
        "longitude_deg": NaN,
        "latitude_deg": NaN,
        "alt_km": NaN,
        "orbit_class": "HEO",
        "timestamp": "2025-11-30T04:58:49.680791+00:00"
      },
      "geometry": {
        "type": "Point",
        "coordinates": [
          NaN,
          NaN
        ]
      }
    },
    {
      "type": "Feature",
      "properties": {
        "OBJECT_NAME": "MICROCARB",
        "OBJECT_ID": "2025-156A",
        "EPOCH": "2025-11-29T19:17:07.424160",
        "MEAN_MOTION": 14.7202247,
        "ECCENTRICITY": 0.0016295,
        "INCLINATION": 98.0038,
        "RA_OF_ASC_NODE": 49.356,
        "ARG_OF_PERICENTER": 185.0264,
        "MEAN_ANOMALY": 175.0782,
        "EPHEMERIS_TYPE": 0,
        "CLASSIFICATION_TYPE": "U",
        "NORAD_CAT_ID": 64899,
        "ELEMENT_SET_NO": 999,
        "REV_AT_EPOCH": 1863,
        "BSTAR": 0.00012892,
        "MEAN_MOTION_DOT": 7.61e-06,
        "MEAN_MOTION_DDOT": 0,
        "norad_id": 64899,
        "name": "MICROCARB",
        "group": "resource",
        "longitude_deg": NaN,
        "latitude_deg": NaN,
        "alt_km": NaN,
        "orbit_class": "HEO",
        "timestamp": "2025-11-30T04:58:49.680950+00:00"
      },
      "geometry": {
        "type": "Point",
        "coordinates": [
          NaN,
          NaN
        ]
      }
    },
    {
      "type": "Feature",
      "properties": {
        "OBJECT_NAME": "CO3D 3",
        "OBJECT_ID": "2025-156B",
        "EPOCH": "2025-11-29T13:08:11.122944",
        "MEAN_MOTION": 15.11495615,
        "ECCENTRICITY": 0.0136867,
        "INCLINATION": 97.6723,
        "RA_OF_ASC_NODE": 49.0485,
        "ARG_OF_PERICENTER": 160.1625,
        "MEAN_ANOMALY": 200.5002,
        "EPHEMERIS_TYPE": 0,
        "CLASSIFICATION_TYPE": "U",
        "NORAD_CAT_ID": 64900,
        "ELEMENT_SET_NO": 999,
        "REV_AT_EPOCH": 1920,
        "BSTAR": 0.00046351,
        "MEAN_MOTION_DOT": 9.779e-05,
        "MEAN_MOTION_DDOT": 0,
        "norad_id": 64900,
        "name": "CO3D 3",
        "group": "resource",
        "longitude_deg": NaN,
        "latitude_deg": NaN,
        "alt_km": NaN,
        "orbit_class": "HEO",
        "timestamp": "2025-11-30T04:58:49.680956+00:00"
      },
      "geometry": {
        "type": "Point",
        "coordinates": [
          NaN,
          NaN
        ]
      }
    },
    {
      "type": "Feature",
      "properties": {
        "OBJECT_NAME": "CO3D 4",
        "OBJECT_ID": "2025-156C",
        "EPOCH": "2025-11-26T15:37:32.683872",
        "MEAN_MOTION": 15.20201921,
        "ECCENTRICITY": 0.0001092,
        "INCLINATION": 97.4341,
        "RA_OF_ASC_NODE": 47.2487,
        "ARG_OF_PERICENTER": 262.2748,
        "MEAN_ANOMALY": 97.8364,
        "EPHEMERIS_TYPE": 0,
        "CLASSIFICATION_TYPE": "U",
        "NORAD_CAT_ID": 64901,
        "ELEMENT_SET_NO": 999,
        "REV_AT_EPOCH": 1876,
        "BSTAR": -4.05109e-07,
        "MEAN_MOTION_DOT": -7.6e-07,
        "MEAN_MOTION_DDOT": 0,
        "norad_id": 64901,
        "name": "CO3D 4",
        "group": "resource",
        "longitude_deg": NaN,
        "latitude_deg": NaN,
        "alt_km": NaN,
        "orbit_class": "HEO",
        "timestamp": "2025-11-30T04:58:49.680962+00:00"
      },
      "geometry": {
        "type": "Point",
        "coordinates": [
          NaN,
          NaN
        ]
      }
    },
    {
      "type": "Feature",
      "properties": {
        "OBJECT_NAME": "CO3D 2",
        "OBJECT_ID": "2025-156D",
        "EPOCH": "2025-11-29T20:13:59.503584",
        "MEAN_MOTION": 15.20203803,
        "ECCENTRICITY": 9.4e-05,
        "INCLINATION": 97.4348,
        "RA_OF_ASC_NODE": 50.2936,
        "ARG_OF_PERICENTER": 122.2037,
        "MEAN_ANOMALY": 237.9289,
        "EPHEMERIS_TYPE": 0,
        "CLASSIFICATION_TYPE": "U",
        "NORAD_CAT_ID": 64902,
        "ELEMENT_SET_NO": 999,
        "REV_AT_EPOCH": 1924,
        "BSTAR": 0.00028911,
        "MEAN_MOTION_DOT": 6.196e-05,
        "MEAN_MOTION_DDOT": 0,
        "norad_id": 64902,
        "name": "CO3D 2",
        "group": "resource",
        "longitude_deg": NaN,
        "latitude_deg": NaN,
        "alt_km": NaN,
        "orbit_class": "HEO",
        "timestamp": "2025-11-30T04:58:49.680968+00:00"
      },
      "geometry": {
        "type": "Point",
        "coordinates": [
          NaN,
          NaN
        ]
      }
    },
    {
      "type": "Feature",
      "properties": {
        "OBJECT_NAME": "CO3D 1",
        "OBJECT_ID": "2025-156E",
        "EPOCH": "2025-11-29T20:14:12.640704",
        "MEAN_MOTION": 15.20206077,
        "ECCENTRICITY": 9.74e-05,
        "INCLINATION": 97.4342,
        "RA_OF_ASC_NODE": 50.2957,
        "ARG_OF_PERICENTER": 126.0086,
        "MEAN_ANOMALY": 234.1239,
        "EPHEMERIS_TYPE": 0,
        "CLASSIFICATION_TYPE": "U",
        "NORAD_CAT_ID": 64903,
        "ELEMENT_SET_NO": 999,
        "REV_AT_EPOCH": 1924,
        "BSTAR": 0.00084236,
        "MEAN_MOTION_DOT": 0.00018214,
        "MEAN_MOTION_DDOT": 0,
        "norad_id": 64903,
        "name": "CO3D 1",
        "group": "resource",
        "longitude_deg": NaN,
        "latitude_deg": NaN,
        "alt_km": NaN,
        "orbit_class": "HEO",
        "timestamp": "2025-11-30T04:58:49.680974+00:00"
      },
      "geometry": {
        "type": "Point",
        "coordinates": [
          NaN,
          NaN
        ]
      }
    }
  ]
}