GOSAT-GW (IBUKI GW)     
1 64694U 25141A   25331.50993442  .00001079  00000+0  19859-3 0  9993
2 64694  98.0402 267.2999 0001426  77.3570 282.7794 14.67573067 22267
IONOSFERA-M 3           
1 64876U 25155A   25333.83143549  .00000101  00000+0  65592-4 0  9994
2 64876  98.5764 296.0640 0002424  80.1562 279.9889 14.21435913 18085
IONOSFERA-M 4           
1 64877U 25155B   25333.86651101  .00000095  00000+0  63175-4 0  9993
2 64877  98.5763 296.0179 0001785  76.7479 283.3898 14.21436907 18082
MICROCARB               
1 64899U 25156A   25333.80355815  .00000761  00000+0  12892-3 0  9994
2 64899  98.0038  49.3560 0016295 185.0264 175.0782 14.72022470 18639
CO3D 3                  
1 64900U 25156B   25333.54735096  .00009779  00000+0  46351-3 0  9996
2 64900  97.6723  49.0485 0136867 160.1625 200.5002 15.11495615 19206
CO3D 4                  
1 64901U 25156C   25330.65107273 -.00000076  00000+0 -40511-6 0  9994
2 64901  97.4341  47.2487 0001092 262.2748  97.8364 15.20201921 18767
CO3D 2                  
1 64902U 25156D   25333.84304981  .00006196  00000+0  28911-3 0  9998
2 64902  97.4348  50.2936 0000940 122.2037 237.9289 15.20203803 19243
CO3D 1                  
1 64903U 25156E   25333.84320186  .00018214  00000+0  84236-3 0  9990
2 64903  97.4342  50.2957 0000974 126.0086 234.1239 15.20206077 19244
